start=new Date('2022-02-27T00:00:00.000Z').valueOf();
sats=[{"ARG_OF_PERICENTER":"65.7019","LAUNCH_DATE":"2020-01-07","MEAN_ELEMENT_THEORY":"SGP4","RCS_SIZE":"LARGE","REV_AT_EPOCH":"11855","TLE_LINE1":"1 44966U 20001BE  22057.76931358  .00002246  00000-0  16962-3 0  9991","EPHEMERIS_TYPE":"0","TLE_LINE2":"2 44966  53.0551  74.3267 0001483  65.7019 294.4125 15.06401902118558","EPOCH":"2022-02-26T18:27:48.693312","CLASSIFICATION_TYPE":"U","MEAN_MOTION_DDOT":"0.0000000000000","CENTER_NAME":"EARTH","REF_FRAME":"TEME","COUNTRY_CODE":"US","MEAN_MOTION":"15.06401902","PERIOD":"95.592","INCLINATION":"53.0551","PERIAPSIS":"546.181","MEAN_ANOMALY":"294.4125","BSTAR":"0.00016962000000","MEAN_MOTION_DOT":"0.00002246","SEMIMAJOR_AXIS":"6925.343","ELEMENT_SET_NO":"999","OBJECT_NAME":"STARLINK-1088","SITE":"AFETR","RA_OF_ASC_NODE":"74.3267","OBJECT_TYPE":"PAYLOAD","DECAY_DATE":null,"APOAPSIS":"548.235","FILE":"3327391","OBJECT_ID":"2020-001BE","ECCENTRICITY":"0.00014830","NORAD_CAT_ID":"44966","GP_ID":"197156954","TIME_SYSTEM":"UTC"},{"RCS_SIZE":"LARGE","REV_AT_EPOCH":"11852","MEAN_ELEMENT_THEORY":"SGP4","ARG_OF_PERICENTER":"66.0120","LAUNCH_DATE":"2020-01-07","EPHEMERIS_TYPE":"0","TLE_LINE1":"1 44967U 20001BF  22057.52604742  .00000599  00000-0  59104-4 0  9995","TLE_LINE2":"2 44967  53.0553  75.4296 0001656  66.0120 294.1042 15.06399203118526","EPOCH":"2022-02-26T12:37:30.497088","MEAN_MOTION":"15.06399203","COUNTRY_CODE":"US","CLASSIFICATION_TYPE":"U","MEAN_MOTION_DDOT":"0.0000000000000","CENTER_NAME":"EARTH","REF_FRAME":"TEME","BSTAR":"0.00005910400000","PERIAPSIS":"546.069","MEAN_ANOMALY":"294.1042","INCLINATION":"53.0553","PERIOD":"95.592","DECAY_DATE":null,"RA_OF_ASC_NODE":"75.4296","OBJECT_TYPE":"PAYLOAD","SEMIMAJOR_AXIS":"6925.351","OBJECT_NAME":"STARLINK-1089","MEAN_MOTION_DOT":"0.00000599","ELEMENT_SET_NO":"999","SITE":"AFETR","NORAD_CAT_ID":"44967","ECCENTRICITY":"0.00016560","APOAPSIS":"548.363","OBJECT_ID":"2020-001BF","FILE":"3327391","TIME_SYSTEM":"UTC","GP_ID":"197158206"},{"ECCENTRICITY":"0.00018290","NORAD_CAT_ID":"44968","OBJECT_ID":"2020-001BG","FILE":"3327391","APOAPSIS":"548.490","GP_ID":"197157952","TIME_SYSTEM":"UTC","BSTAR":"-0.00000157450000","INCLINATION":"53.0550","PERIOD":"95.592","MEAN_ANOMALY":"300.8501","PERIAPSIS":"545.956","OBJECT_TYPE":"PAYLOAD","RA_OF_ASC_NODE":"75.4363","DECAY_DATE":null,"SITE":"AFETR","SEMIMAJOR_AXIS":"6925.358","MEAN_MOTION_DOT":"-0.00000305","ELEMENT_SET_NO":"999","OBJECT_NAME":"STARLINK-1090","EPOCH":"2022-02-26T12:32:12.637536","TLE_LINE2":"2 44968  53.0550  75.4363 0001829  59.2668 300.8501 15.06396903118521","MEAN_MOTION":"15.06396903","REF_FRAME":"TEME","CENTER_NAME":"EARTH","MEAN_MOTION_DDOT":"0.0000000000000","CLASSIFICATION_TYPE":"U","COUNTRY_CODE":"US","MEAN_ELEMENT_THEORY":"SGP4","REV_AT_EPOCH":"11852","RCS_SIZE":"LARGE","ARG_OF_PERICENTER":"59.2668","LAUNCH_DATE":"2020-01-07","EPHEMERIS_TYPE":"0","TLE_LINE1":"1 44968U 20001BG  22057.52236849 -.00000305  00000-0 -15745-5 0  9996"},{"TIME_SYSTEM":"UTC","GP_ID":"197157205","OBJECT_ID":"2020-001BH","FILE":"3327391","APOAPSIS":"548.367","NORAD_CAT_ID":"44969","ECCENTRICITY":"0.00016250","SITE":"AFETR","SEMIMAJOR_AXIS":"6925.376","ELEMENT_SET_NO":"999","MEAN_MOTION_DOT":"0.00000293","OBJECT_NAME":"STARLINK-1092","DECAY_DATE":null,"OBJECT_TYPE":"PAYLOAD","RA_OF_ASC_NODE":"74.2764","MEAN_ANOMALY":"292.8813","PERIAPSIS":"546.116","INCLINATION":"53.0551","PERIOD":"95.593","BSTAR":"0.00003860600000","COUNTRY_CODE":"US","REF_FRAME":"TEME","CLASSIFICATION_TYPE":"U","MEAN_MOTION_DDOT":"0.0000000000000","CENTER_NAME":"EARTH","MEAN_MOTION":"15.06390884","EPOCH":"2022-02-26T18:43:45.178464","TLE_LINE2":"2 44969  53.0551  74.2764 0001625  67.2348 292.8813 15.06390884118554","TLE_LINE1":"1 44969U 20001BH  22057.78038401  .00000293  00000-0  38606-4 0  9993","EPHEMERIS_TYPE":"0","LAUNCH_DATE":"2020-01-07","ARG_OF_PERICENTER":"67.2348","REV_AT_EPOCH":"11855","RCS_SIZE":"LARGE","MEAN_ELEMENT_THEORY":"SGP4"},{"ARG_OF_PERICENTER":"72.4285","LAUNCH_DATE":"2020-01-07","MEAN_ELEMENT_THEORY":"SGP4","RCS_SIZE":"LARGE","REV_AT_EPOCH":"11854","TLE_LINE1":"1 44970U 20001BJ  22057.75826179  .00001114  00000-0  93699-4 0  9995","EPHEMERIS_TYPE":"0","TLE_LINE2":"2 44970  53.0536  74.3767 0001344  72.4285 287.6850 15.06397714118540","EPOCH":"2022-02-26T18:11:53.818656","CLASSIFICATION_TYPE":"U","MEAN_MOTION_DDOT":"0.0000000000000","CENTER_NAME":"EARTH","REF_FRAME":"TEME","COUNTRY_CODE":"US","MEAN_MOTION":"15.06397714","INCLINATION":"53.0536","PERIOD":"95.592","PERIAPSIS":"546.290","MEAN_ANOMALY":"287.6850","BSTAR":"0.00009369900000","MEAN_MOTION_DOT":"0.00001114","SEMIMAJOR_AXIS":"6925.356","OBJECT_NAME":"STARLINK-1093","ELEMENT_SET_NO":"999","SITE":"AFETR","RA_OF_ASC_NODE":"74.3767","OBJECT_TYPE":"PAYLOAD","DECAY_DATE":null,"APOAPSIS":"548.151","OBJECT_ID":"2020-001BJ","FILE":"3327391","NORAD_CAT_ID":"44970","ECCENTRICITY":"0.00013440","GP_ID":"197157455","TIME_SYSTEM":"UTC"},{"BSTAR":"0.00008905200000","PERIAPSIS":"546.149","MEAN_ANOMALY":"291.9184","PERIOD":"95.592","INCLINATION":"53.0564","DECAY_DATE":null,"RA_OF_ASC_NODE":"75.6914","OBJECT_TYPE":"PAYLOAD","SEMIMAJOR_AXIS":"6925.356","MEAN_MOTION_DOT":"0.00001045","OBJECT_NAME":"STARLINK-1107","ELEMENT_SET_NO":"999","SITE":"AFETR","NORAD_CAT_ID":"44972","ECCENTRICITY":"0.00015470","APOAPSIS":"548.292","OBJECT_ID":"2020-001BL","FILE":"3326397","TIME_SYSTEM":"UTC","GP_ID":"197109392","RCS_SIZE":"LARGE","REV_AT_EPOCH":"11851","MEAN_ELEMENT_THEORY":"SGP4","LAUNCH_DATE":"2020-01-07","ARG_OF_PERICENTER":"68.1969","EPHEMERIS_TYPE":"0","TLE_LINE1":"1 44972U 20001BL  22057.46339993  .00001045  00000-0  89052-4 0  9999","TLE_LINE2":"2 44972  53.0564  75.6914 0001547  68.1969 291.9184 15.06397724118513","EPOCH":"2022-02-26T11:07:17.753952","MEAN_MOTION":"15.06397724","COUNTRY_CODE":"US","CENTER_NAME":"EARTH","MEAN_MOTION_DDOT":"0.0000000000000","CLASSIFICATION_TYPE":"U","REF_FRAME":"TEME"},{"ARG_OF_PERICENTER":"60.9844","LAUNCH_DATE":"2020-01-07","REV_AT_EPOCH":"11855","RCS_SIZE":"LARGE","MEAN_ELEMENT_THEORY":"SGP4","TLE_LINE1":"1 44973U 20001BM  22057.77301529  .00000386  00000-0  44828-4 0  9997","EPHEMERIS_TYPE":"0","EPOCH":"2022-02-26T18:33:08.521056","TLE_LINE2":"2 44973  53.0556  74.3208 0001488  60.9844 299.1294 15.06389824118551","COUNTRY_CODE":"US","REF_FRAME":"TEME","MEAN_MOTION_DDOT":"0.0000000000000","CENTER_NAME":"EARTH","CLASSIFICATION_TYPE":"U","MEAN_MOTION":"15.06389824","MEAN_ANOMALY":"299.1294","PERIAPSIS":"546.214","INCLINATION":"53.0556","PERIOD":"95.593","BSTAR":"0.00004482800000","SITE":"AFETR","ELEMENT_SET_NO":"999","SEMIMAJOR_AXIS":"6925.380","MEAN_MOTION_DOT":"0.00000386","OBJECT_NAME":"STARLINK-1115","DECAY_DATE":null,"OBJECT_TYPE":"PAYLOAD","RA_OF_ASC_NODE":"74.3208","FILE":"3327391","OBJECT_ID":"2020-001BM","APOAPSIS":"548.275","NORAD_CAT_ID":"44973","ECCENTRICITY":"0.00014880","TIME_SYSTEM":"UTC","GP_ID":"197158453"},{"EPOCH":"2022-02-26T08:22:44.743872","TLE_LINE2":"2 45044  53.0560  36.2190 0001771  59.1144 301.0019 15.06396537114824","COUNTRY_CODE":"US","REF_FRAME":"TEME","MEAN_MOTION_DDOT":"0.0000000000000","CLASSIFICATION_TYPE":"U","CENTER_NAME":"EARTH","MEAN_MOTION":"15.06396537","ARG_OF_PERICENTER":"59.1144","LAUNCH_DATE":"2020-01-29","REV_AT_EPOCH":"11482","RCS_SIZE":"LARGE","MEAN_ELEMENT_THEORY":"SGP4","TLE_LINE1":"1 45044U 20006A   22057.34912898 -.00000782  00000-0 -33623-4 0  9995","EPHEMERIS_TYPE":"0","OBJECT_ID":"2020-006A","FILE":"3326397","APOAPSIS":"548.451","NORAD_CAT_ID":"45044","ECCENTRICITY":"0.00017710","TIME_SYSTEM":"UTC","GP_ID":"197110150","MEAN_ANOMALY":"301.0019","PERIAPSIS":"545.998","INCLINATION":"53.0560","PERIOD":"95.592","BSTAR":"-0.00003362300000","SITE":"AFETR","SEMIMAJOR_AXIS":"6925.359","MEAN_MOTION_DOT":"-0.00000782","OBJECT_NAME":"STARLINK-1132","ELEMENT_SET_NO":"999","DECAY_DATE":null,"OBJECT_TYPE":"PAYLOAD","RA_OF_ASC_NODE":"36.2190"},{"MEAN_MOTION":"15.06398596","COUNTRY_CODE":"US","CENTER_NAME":"EARTH","MEAN_MOTION_DDOT":"0.0000000000000","CLASSIFICATION_TYPE":"U","REF_FRAME":"TEME","TLE_LINE2":"2 45045  53.0549  55.9671 0001534  64.7287 295.3861 15.06398596114558","EPOCH":"2022-02-26T09:39:41.313600","EPHEMERIS_TYPE":"0","TLE_LINE1":"1 45045U 20006B   22057.40256150  .00002170  00000-0  16453-3 0  9997","RCS_SIZE":"LARGE","REV_AT_EPOCH":"11455","MEAN_ELEMENT_THEORY":"SGP4","ARG_OF_PERICENTER":"64.7287","LAUNCH_DATE":"2020-01-29","TIME_SYSTEM":"UTC","GP_ID":"197108899","ECCENTRICITY":"0.00015340","NORAD_CAT_ID":"45045","APOAPSIS":"548.280","OBJECT_ID":"2020-006B","FILE":"3326397","DECAY_DATE":null,"RA_OF_ASC_NODE":"55.9671","OBJECT_TYPE":"PAYLOAD","OBJECT_NAME":"STARLINK-1120","SEMIMAJOR_AXIS":"6925.353","MEAN_MOTION_DOT":"0.00002170","ELEMENT_SET_NO":"999","SITE":"AFETR","BSTAR":"0.00016453000000","PERIAPSIS":"546.156","MEAN_ANOMALY":"295.3861","PERIOD":"95.592","INCLINATION":"53.0549"},{"MEAN_MOTION":"15.10395793","REF_FRAME":"TEME","CENTER_NAME":"EARTH","MEAN_MOTION_DDOT":"0.0000000000000","CLASSIFICATION_TYPE":"U","COUNTRY_CODE":"US","EPOCH":"2022-02-26T16:26:39.211584","TLE_LINE2":"2 45046  52.9971  48.1414 0001851  82.5527 277.5674 15.10395793114658","EPHEMERIS_TYPE":"0","TLE_LINE1":"1 45046U 20006C   22057.68517606  .00008629  00000-0  53639-3 0  9996","MEAN_ELEMENT_THEORY":"SGP4","REV_AT_EPOCH":"11465","RCS_SIZE":"LARGE","LAUNCH_DATE":"2020-01-29","ARG_OF_PERICENTER":"82.5527","GP_ID":"197157462","TIME_SYSTEM":"UTC","NORAD_CAT_ID":"45046","ECCENTRICITY":"0.00018510","OBJECT_ID":"2020-006C","FILE":"3327391","APOAPSIS":"536.274","OBJECT_TYPE":"PAYLOAD","RA_OF_ASC_NODE":"48.1414","DECAY_DATE":null,"SITE":"AFETR","MEAN_MOTION_DOT":"0.00008629","SEMIMAJOR_AXIS":"6913.129","ELEMENT_SET_NO":"999","OBJECT_NAME":"STARLINK-1129","BSTAR":"0.00053639000000","PERIOD":"95.339","INCLINATION":"52.9971","MEAN_ANOMALY":"277.5674","PERIAPSIS":"533.714"}];
